NORAD_CAT_ID,OBJECT_NAME,OBJECT_TYPE,EPOCH,MEAN_MOTION,ECCENTRICITY,INCLINATION,RA_OF_ASC_NODE,ARG_OF_PERICENTER,MEAN_ANOMALY,BSTAR,MEAN_MOTION_DOT,MEAN_MOTION_DDOT,TLE_LINE0,TLE_LINE1,TLE_LINE2,SEMIMAJOR_AXIS,PERIOD,APOGEE,PERIGEE,DECAYED
51778.0,STARLINK-3615,PAYLOAD,2023-05-29 03:20:41,15.08846126,0.0001055,53.2164,207.9785,89.3265,270.7848,0.00016908,2.405e-05,0.0,0 STARLINK-3615,1 51778U 22017L   23149.13936453  .00002405  00000-0  16908-3 0  9991,2 51778  53.2164 207.9785 0001055  89.3265 270.7848 15.08846126 70894,6917.862,95.437,540.456,538.997,0.0
51778.0,STARLINK-3615,PAYLOAD,2023-05-29 11:17:36,15.08850603,0.0001064,53.2162,206.4915,88.7882,271.3232,0.00015507,2.182e-05,0.0,0 STARLINK-3615,1 51778U 22017L   23149.47056128  .00002182  00000-0  15507-3 0  9996,2 51778  53.2162 206.4915 0001064  88.7882 271.3232 15.08850603 69290,6917.848,95.437,540.449,538.977,0.0
51778.0,STARLINK-3615,PAYLOAD,2023-05-29 20:49:55,15.08841752,0.0001074,53.2167,204.7075,87.8794,272.2321,7.942e-05,9.76e-06,0.0,0 STARLINK-3615,1 51778U 22017L   23149.86800835  .00000976  00000-0  79420-4 0  9995,2 51778  53.2167 204.7075 0001074  87.8794 272.2321 15.08841752 69357,6917.875,95.437,540.483,538.997,0.0
51778.0,STARLINK-3615,PAYLOAD,2023-05-30 07:57:38,15.08831524,0.0001313,53.2165,202.6259,93.6741,266.4401,-3.5873e-06,-3.45e-06,0.0,0 STARLINK-3615,1 51778U 22017L   23150.33169850 -.00000345  00000-0 -35873-5 0  9991,2 51778  53.2165 202.6259 0001313  93.6741 266.4401 15.08831524 71071,6917.906,95.438,540.68,538.863,0.0
51778.0,STARLINK-3615,PAYLOAD,2023-05-30 12:43:48,15.0883422,0.0001203,53.2171,201.7329,84.4357,275.6772,-4.8644e-05,-1.062e-05,0.0,0 STARLINK-3615,1 51778U 22017L   23150.53041884 -.00001062  00000-0 -48644-4 0  9995,2 51778  53.2171 201.7329 0001203  84.4357 275.6772 15.08834220 69453,6917.898,95.438,540.595,538.931,0.0
51778.0,STARLINK-3615,PAYLOAD,2023-05-30 20:40:43,15.08836603,0.0001183,53.216,200.2465,86.5452,273.5675,-2.7104e-05,-7.19e-06,0.0,0 STARLINK-3615,1 51778U 22017L   23150.86161712 -.00000719  00000-0 -27104-4 0  9990,2 51778  53.2160 200.2465 0001183  86.5452 273.5675 15.08836603 69504,6917.891,95.438,540.574,538.937,0.0
51778.0,STARLINK-3615,PAYLOAD,2023-05-31 03:02:15,15.08841141,0.0001127,53.2153,199.0569,85.3799,274.7321,-3.9479e-05,-9.16e-06,0.0,0 STARLINK-3615,1 51778U 22017L   23151.12657406 -.00000916  00000-0 -39479-4 0  9997,2 51778  53.2153 199.0569 0001127  85.3799 274.7321 15.08841141 71197,6917.877,95.437,540.522,538.962,0.0
51778.0,STARLINK-3615,PAYLOAD,2023-05-31 09:23:48,15.08840726,0.0001128,53.2153,197.8673,85.8133,274.2988,-2.6434e-05,-7.08e-06,0.0,0 STARLINK-3615,1 51778U 22017L   23151.39153385 -.00000708  00000-0 -26434-4 0  9999,2 51778  53.2153 197.8673 0001128  85.8133 274.2988 15.08840726 69589,6917.878,95.438,540.524,538.963,0.0
51778.0,STARLINK-3615,PAYLOAD,2023-05-31 20:31:30,15.08840927,0.0001103,53.2156,195.7855,85.8898,274.222,4.5692e-05,4.39e-06,0.0,0 STARLINK-3615,1 51778U 22017L   23151.85521134  .00000439  00000-0  45692-4 0  9997,2 51778  53.2156 195.7855 0001103  85.8898 274.2220 15.08840927 69652,6917.878,95.437,540.506,538.98,0.0
51778.0,STARLINK-3615,PAYLOAD,2023-06-01 09:14:35,15.08841309,0.0001063,53.2154,193.4067,84.4617,275.6497,0.00014701,2.053e-05,0.0,0 STARLINK-3615,1 51778U 22017L   23152.38512961  .00002053  00000-0  14701-3 0  9994,2 51778  53.2154 193.4067 0001063  84.4617 275.6497 15.08841309 69734,6917.876,95.437,540.477,539.006,0.0
51778.0,STARLINK-3615,PAYLOAD,2023-06-02 02:43:50,15.08836488,0.0001108,53.2146,190.1346,87.5435,272.5684,4.4132e-05,4.15e-06,0.0,0 STARLINK-3615,1 51778U 22017L   23153.11377656  .00000415  00000-0  44132-4 0  9998,2 51778  53.2146 190.1346 0001108  87.5435 272.5684 15.08836488 71493,6917.891,95.438,540.523,538.99,0.0
51778.0,STARLINK-3615,PAYLOAD,2023-06-02 09:05:22,15.08836105,0.0001089,53.2148,188.9451,88.6008,271.5109,4.0029e-05,3.49e-06,0.0,0 STARLINK-3615,1 51778U 22017L   23153.37873705  .00000349  00000-0  40029-4 0  9999,2 51778  53.2148 188.9451 0001089  88.6008 271.5109 15.08836105 69880,6917.892,95.438,540.511,539.004,0.0
51778.0,STARLINK-3615,PAYLOAD,2023-06-03 12:06:56,15.08837641,0.0001101,53.2151,183.8897,96.7992,263.3126,-2.2671e-05,-6.49e-06,0.0,0 STARLINK-3615,1 51778U 22017L   23154.50481892 -.00000649  00000-0 -22671-4 0  9995,2 51778  53.2151 183.8897 0001101  96.7992 263.3126 15.08837641 71707,6917.888,95.438,540.514,538.991,0.0
51778.0,STARLINK-3615,PAYLOAD,2023-06-03 18:28:28,15.08838516,0.0001087,53.2151,182.7006,96.7759,263.3357,-6.3626e-06,-3.89e-06,0.0,0 STARLINK-3615,1 51778U 22017L   23154.76977805 -.00000389  00000-0 -63626-5 0  9994,2 51778  53.2151 182.7006 0001087  96.7759 263.3357 15.08838516 70090,6917.885,95.438,540.502,538.998,0.0
51778.0,STARLINK-3615,PAYLOAD,2023-06-04 07:11:34,15.08834035,0.0001042,53.2152,180.3222,90.596,269.5151,4.7019e-05,4.61e-06,0.0,0 STARLINK-3615,1 51778U 22017L   23155.29970097  .00000461  00000-0  47019-4 0  9995,2 51778  53.2152 180.3222 0001042  90.5960 269.5151 15.08834035 70173,6917.899,95.438,540.484,539.043,0.0
51778.0,STARLINK-3615,PAYLOAD,2023-06-04 18:19:16,15.08835482,0.000105,53.2158,178.2406,94.1357,265.9755,6.1878e-05,6.97e-06,0.0,0 STARLINK-3615,1 51778U 22017L   23155.76338060  .00000697  00000-0  61878-4 0  9995,2 51778  53.2158 178.2406 0001050  94.1357 265.9755 15.08835482 71895,6917.894,95.438,540.486,539.033,0.0
51778.0,STARLINK-3615,PAYLOAD,2023-06-05 10:13:07,15.08840504,0.0001033,53.2157,175.2668,89.4075,270.7036,7.9068e-05,9.71e-06,0.0,0 STARLINK-3615,1 51778U 22017L   23156.42577793  .00000971  00000-0  79068-4 0  9992,2 51778  53.2157 175.2668 0001033  89.4075 270.7036 15.08840504 70342,6917.879,95.438,540.458,539.029,0.0
51778.0,STARLINK-3615,PAYLOAD,2023-06-06 03:42:22,15.08835452,0.000105,53.2157,171.9957,89.0101,271.1011,3.3851e-05,2.51e-06,0.0,0 STARLINK-3615,1 51778U 22017L   23157.15442399  .00000251  00000-0  33851-4 0  9997,2 51778  53.2157 171.9957 0001050  89.0101 271.1011 15.08835452 72101,6917.894,95.438,540.486,539.033,0.0
51778.0,STARLINK-3615,PAYLOAD,2023-06-06 10:03:54,15.08837061,0.0001021,53.2154,170.8061,88.3588,271.7521,3.2856e-05,2.35e-06,0.0,0 STARLINK-3615,1 51778U 22017L   23157.41938347  .00000235  00000-0  32856-4 0  9995,2 51778  53.2154 170.8061 0001021  88.3588 271.7521 15.08837061 70491,6917.889,95.438,540.461,539.048,0.0
51778.0,STARLINK-3615,PAYLOAD,2023-06-07 03:33:08,15.08843222,0.0001017,53.2157,167.5356,91.5495,268.5614,4.2113e-05,3.83e-06,0.0,0 STARLINK-3615,1 51778U 22017L   23158.14801939  .00000383  00000-0  42113-4 0  9993,2 51778  53.2157 167.5356 0001017  91.5495 268.5614 15.08843222 72251,6917.871,95.437,540.439,539.032,0.0
51778.0,STARLINK-3615,PAYLOAD,2023-06-07 09:54:41,15.08844007,0.0001023,53.2155,166.3458,92.1761,267.9349,5.2366e-05,5.46e-06,0.0,0 STARLINK-3615,1 51778U 22017L   23158.41297802  .00000546  00000-0  52366-4 0  9993,2 51778  53.2155 166.3458 0001023  92.1761 267.9349 15.08844007 70640,6917.868,95.437,540.441,539.025,0.0
51778.0,STARLINK-3615,PAYLOAD,2023-06-07 17:51:37,15.08836235,9.9e-05,53.2153,164.8583,90.4478,269.6627,1.5679e-05,-3.8e-07,0.0,0 STARLINK-3615,1 51778U 22017L   23158.74418389 -.00000038  00000-0  15679-4 0  9997,2 51778  53.2153 164.8583 0000990  90.4478 269.6627 15.08836235 72349,6917.892,95.438,540.442,539.072,0.0
51778.0,STARLINK-3615,PAYLOAD,2023-06-08 06:34:42,15.08835678,0.0001011,53.2152,162.4795,89.7541,270.3567,2.8562e-05,1.67e-06,0.0,0 STARLINK-3615,1 51778U 22017L   23159.27410520  .00000167  00000-0  28562-4 0  9992,2 51778  53.2152 162.4795 0001011  89.7541 270.3567 15.08835678 70771,6917.894,95.438,540.458,539.059,0.0
51778.0,STARLINK-3615,PAYLOAD,2023-06-08 22:28:33,15.08842303,0.0001012,53.2149,159.5055,88.3771,271.7337,3.3352e-05,2.43e-06,0.0,0 STARLINK-3615,1 51778U 22017L   23159.93650164  .00000243  00000-0  33352-4 0  9993,2 51778  53.2149 159.5055 0001012  88.3771 271.7337 15.08842303 72522,6917.873,95.437,540.438,539.038,0.0
51778.0,STARLINK-3615,PAYLOAD,2023-06-09 09:36:15,15.08843108,0.0001021,53.2148,157.4244,84.2935,275.8173,3.6175e-05,2.88e-06,0.0,0 STARLINK-3615,1 51778U 22017L   23160.40018060  .00000288  00000-0  36175-4 0  9995,2 51778  53.2148 157.4244 0001021  84.2935 275.8173 15.08843108 70946,6917.871,95.437,540.442,539.03,0.0
51778.0,STARLINK-3615,PAYLOAD,2023-06-09 23:54:43,15.08839298,0.0001015,53.2148,154.748,83.0052,277.1055,7.8726e-05,9.65e-06,0.0,0 STARLINK-3615,1 51778U 22017L   23160.99634128  .00000965  00000-0  78726-4 0  9998,2 51778  53.2148 154.7480 0001015  83.0052 277.1055 15.08839298 72680,6917.883,95.438,540.45,539.045,0.0
51778.0,STARLINK-3615,PAYLOAD,2023-06-10 11:02:25,15.08843297,0.0001019,53.2153,152.6666,81.2252,278.8856,8.9057e-05,1.13e-05,0.0,0 STARLINK-3615,1 51778U 22017L   23161.46001852  .00001130  00000-0  89057-4 0  9997,2 51778  53.2153 152.6666 0001019  81.2252 278.8856 15.08843297 71102,6917.87,95.437,540.44,539.03,0.0
51778.0,STARLINK-3615,PAYLOAD,2023-06-11 10:53:13,15.08838733,0.0001137,53.2159,148.2062,84.039,276.0731,9.2337e-06,-1.41e-06,0.0,0 STARLINK-3615,1 51778U 22017L   23162.45362527 -.00000141  00000-0  92337-5 0  9994,2 51778  53.2159 148.2062 0001137  84.0390 276.0731 15.08838733 72904,6917.884,95.438,540.536,538.963,0.0
51778.0,STARLINK-3615,PAYLOAD,2023-06-11 15:39:22,15.08837004,0.0001135,53.216,147.3141,83.5074,276.6047,-5.9601e-06,-3.83e-06,0.0,0 STARLINK-3615,1 51778U 22017L   23162.65234699 -.00000383  00000-0 -59601-5 0  9990,2 51778  53.2160 147.3141 0001135  83.5074 276.6047 15.08837004 71281,6917.89,95.438,540.54,538.969,0.0
51778.0,STARLINK-3615,PAYLOAD,2023-06-12 07:33:13,15.08841986,0.0001111,53.2161,144.3402,81.2744,278.8374,2.871e-05,1.69e-06,0.0,0 STARLINK-3615,1 51778U 22017L   23163.31474314  .00000169  00000-0  28710-4 0  9990,2 51778  53.2161 144.3402 0001111  81.2744 278.8374 15.08841986 71384,6917.874,95.437,540.508,538.971,0.0
